{"type": "FeatureCollection", "features": [ {"type": "Feature", "properties": {"norad_id": 66816, "name": "STARLINK-36098", "group": "last-30-days", "lat": -42.944359614822645, "lon": 172.71830226188035, "alt_km": 301.96411943188286, "timestamp": "2025-12-11T10:53:14.621728+00:00", "meta": {"OBJECT_NAME": "STARLINK-36098", "OBJECT_ID": "2025-278AB", "EPOCH": "2025-12-11T04:00:01.998720", "MEAN_MOTION": 15.91661316, "ECCENTRICITY": 0.0001804, "INCLINATION": 42.9985, "RA_OF_ASC_NODE": 261.7493, "ARG_OF_PERICENTER": 275.2029, "MEAN_ANOMALY": 150.975, "EPHEMERIS_TYPE": 0, "CLASSIFICATION_TYPE": "U", "NORAD_CAT_ID": 66816, "ELEMENT_SET_NO": 999, "REV_AT_EPOCH": 254, "BSTAR": -0.0043197, "MEAN_MOTION_DOT": -0.01455902, "MEAN_MOTION_DDOT": 0.00059879}, "tle": {"line1": "1 66816U 25278AB  25345.16668980 -.01455902  59879-3 -43197-2 0  9999", "line2": "2 66816  42.9985 261.7493 0001804 275.2029 150.9750 15.91661316  2545"}}, "geometry": {"type": "Point", "coordinates": [172.71830226188035, -42.944359614822645]}}, {"type": "Feature", "properties": {"norad_id": 66817, "name": "STARLINK-35995", "group": "last-30-days", "lat": -42.575185192676315, "lon": 179.54535296403444, "alt_km": 301.7483766045416, "timestamp": "2025-12-11T10:53:14.621739+00:00", "meta": {"OBJECT_NAME": "STARLINK-35995", "OBJECT_ID": "2025-278AC", "EPOCH": "2025-12-11T04:00:01.998720", "MEAN_MOTION": 15.91732373, "ECCENTRICITY": 0.0001851, "INCLINATION": 42.9985, "RA_OF_ASC_NODE": 261.7366, "ARG_OF_PERICENTER": 274.3898, "MEAN_ANOMALY": 156.7612, "EPHEMERIS_TYPE": 0, "CLASSIFICATION_TYPE": "U", "NORAD_CAT_ID": 66817, "ELEMENT_SET_NO": 999, "REV_AT_EPOCH": 270, "BSTAR": -0.0043739, "MEAN_MOTION_DOT": -0.01479344, "MEAN_MOTION_DDOT": 0.00061701}, "tle": {"line1": "1 66817U 25278AC  25345.16668980 -.01479344  61701-3 -43739-2 0  9995", "line2": "2 66817  42.9985 261.7366 0001851 274.3898 156.7612 15.91732373  2702"}}, "geometry": {"type": "Point", "coordinates": [179.54535296403444, -42.575185192676315]}}, {"type": "Feature", "properties": {"norad_id": 66818, "name": "STARLINK-35994", "group": "last-30-days", "lat": -42.786230898486316, "lon": 176.57858456011942, "alt_km": 301.9043611806155, "timestamp": "2025-12-11T10:53:14.621751+00:00", "meta": {"OBJECT_NAME": "STARLINK-35994", "OBJECT_ID": "2025-278AD", "EPOCH": "2025-12-11T04:00:01.998720", "MEAN_MOTION": 15.91698379, "ECCENTRICITY": 0.0001761, "INCLINATION": 42.9985, "RA_OF_ASC_NODE": 261.7423, "ARG_OF_PERICENTER": 272.1898, "MEAN_ANOMALY": 156.7957, "EPHEMERIS_TYPE": 0, "CLASSIFICATION_TYPE": "U", "NORAD_CAT_ID": 66818, "ELEMENT_SET_NO": 999, "REV_AT_EPOCH": 270, "BSTAR": -0.0043636, "MEAN_MOTION_DOT": -0.01473318, "MEAN_MOTION_DDOT": 0.00061221}, "tle": {"line1": "1 66818U 25278AD  25345.16668980 -.01473318  61221-3 -43636-2 0  9994", "line2": "2 66818  42.9985 261.7423 0001761 272.1898 156.7957 15.91698379  2702"}}, "geometry": {"type": "Point", "coordinates": [176.57858456011942, -42.786230898486316]}}, {"type": "Feature", "properties": {"norad_id": 66819, "name": "STARLINK-35989", "group": "last-30-days", "lat": -42.28514948355994, "lon": -177.48481654462643, "alt_km": 301.66833526616756, "timestamp": "2025-12-11T10:53:14.621763+00:00", "meta": {"OBJECT_NAME": "STARLINK-35989", "OBJECT_ID": "2025-278AE", "EPOCH": "2025-12-11T04:00:01.998720", "MEAN_MOTION": 15.91763532, "ECCENTRICITY": 0.0001821, "INCLINATION": 42.9987, "RA_OF_ASC_NODE": 261.7311, "ARG_OF_PERICENTER": 273.6198, "MEAN_ANOMALY": 159.7154, "EPHEMERIS_TYPE": 0, "CLASSIFICATION_TYPE": "U", "NORAD_CAT_ID": 66819, "ELEMENT_SET_NO": 999, "REV_AT_EPOCH": 270, "BSTAR": -0.0043569, "MEAN_MOTION_DOT": -0.01476013, "MEAN_MOTION_DDOT": 0.00061465}, "tle": {"line1": "1 66819U 25278AE  25345.16668980 -.01476013  61465-3 -43569-2 0  9995", "line2": "2 66819  42.9987 261.7311 0001821 273.6198 159.7154 15.91763532  2703"}}, "geometry": {"type": "Point", "coordinates": [-177.48481654462643, -42.28514948355994]}}, {"type": "Feature", "properties": {"norad_id": 66820, "name": "KOMPSAT-7", "group": "last-30-days", "lat": -68.17092061142263, "lon": 91.76616628047798, "alt_km": 573.2043129173608, "timestamp": "2025-12-11T10:53:14.621773+00:00", "meta": {"OBJECT_NAME": "KOMPSAT-7", "OBJECT_ID": "2025-279A", "EPOCH": "2025-12-10T22:33:37.948320", "MEAN_MOTION": 14.98663462, "ECCENTRICITY": 0.00081382, "INCLINATION": 97.6403, "RA_OF_ASC_NODE": 290.8429, "ARG_OF_PERICENTER": 225.109, "MEAN_ANOMALY": 134.9473, "EPHEMERIS_TYPE": 0, "CLASSIFICATION_TYPE": "U", "NORAD_CAT_ID": 66820, "ELEMENT_SET_NO": 999, "REV_AT_EPOCH": 138, "BSTAR": 0.0003749417, "MEAN_MOTION_DOT": 4.449e-05, "MEAN_MOTION_DDOT": 0}, "tle": {"line1": "1 66820U 25279A   25344.94002255  .00004449  00000+0  37494-3 0  9992", "line2": "2 66820  97.6403 290.8429 0008138 225.1090 134.9473 14.98663462  1388"}}, "geometry": {"type": "Point", "coordinates": [91.76616628047798, -68.17092061142263]}}, {"type": "Feature", "properties": {"norad_id": 66821, "name": "STARLINK-35966", "group": "last-30-days", "lat": -55.26596965949898, "lon": 54.230578298240665, "alt_km": 321.95124737615515, "timestamp": "2025-12-11T10:53:14.621786+00:00", "meta": {"OBJECT_NAME": "STARLINK-35966", "OBJECT_ID": "2025-280A", "EPOCH": "2025-12-10T16:00:01.999584", "MEAN_MOTION": 15.87163122, "ECCENTRICITY": 0.00039131, "INCLINATION": 69.9939, "RA_OF_ASC_NODE": 204.7907, "ARG_OF_PERICENTER": 271.1294, "MEAN_ANOMALY": 158.5043, "EPHEMERIS_TYPE": 0, "CLASSIFICATION_TYPE": "U", "NORAD_CAT_ID": 66821, "ELEMENT_SET_NO": 999, "REV_AT_EPOCH": 256, "BSTAR": -0.0067612749, "MEAN_MOTION_DOT": -0.01557078, "MEAN_MOTION_DDOT": 0}, "tle": {"line1": "1 66821U 25280A   25344.66668981 -.01557078  00000+0 -67613-2 0  9997", "line2": "2 66821  69.9939 204.7907 0003913 271.1294 158.5043 15.87163122  2566"}}, "geometry": {"type": "Point", "coordinates": [54.230578298240665, -55.26596965949898]}}, {"type": "Feature", "properties": {"norad_id": 66822, "name": "STARLINK-35958", "group": "last-30-days", "lat": -56.68633385080686, "lon": 56.19362779385671, "alt_km": 321.8438602117749, "timestamp": "2025-12-11T10:53:14.621797+00:00", "meta": {"OBJECT_NAME": "STARLINK-35958", "OBJECT_ID": "2025-280B", "EPOCH": "2025-12-10T16:00:01.999584", "MEAN_MOTION": 15.87203288, "ECCENTRICITY": 0.00039141, "INCLINATION": 69.9939, "RA_OF_ASC_NODE": 204.789, "ARG_OF_PERICENTER": 271.5252, "MEAN_ANOMALY": 159.7958, "EPHEMERIS_TYPE": 0, "CLASSIFICATION_TYPE": "U", "NORAD_CAT_ID": 66822, "ELEMENT_SET_NO": 999, "REV_AT_EPOCH": 256, "BSTAR": -0.006752443, "MEAN_MOTION_DOT": -0.0155802, "MEAN_MOTION_DDOT": 0}, "tle": {"line1": "1 66822U 25280B   25344.66668981 -.01558020  00000+0 -67524-2 0  9997", "line2": "2 66822  69.9939 204.7890 0003914 271.5252 159.7958 15.87203288  2563"}}, "geometry": {"type": "Point", "coordinates": [56.19362779385671, -56.68633385080686]}}, {"type": "Feature", "properties": {"norad_id": 66823, "name": "STARLINK-35957", "group": "last-30-days", "lat": -58.135813825489116, "lon": 58.40899377897189, "alt_km": 321.7254754980195, "timestamp": "2025-12-11T10:53:14.621807+00:00", "meta": {"OBJECT_NAME": "STARLINK-35957", "OBJECT_ID": "2025-280C", "EPOCH": "2025-12-10T16:00:01.999584", "MEAN_MOTION": 15.87244205, "ECCENTRICITY": 0.00039284, "INCLINATION": 69.9938, "RA_OF_ASC_NODE": 204.7867, "ARG_OF_PERICENTER": 271.3861, "MEAN_ANOMALY": 161.7087, "EPHEMERIS_TYPE": 0, "CLASSIFICATION_TYPE": "U", "NORAD_CAT_ID": 66823, "ELEMENT_SET_NO": 999, "REV_AT_EPOCH": 256, "BSTAR": -0.0067558235, "MEAN_MOTION_DOT": -0.01561515, "MEAN_MOTION_DDOT": 0}, "tle": {"line1": "1 66823U 25280C   25344.66668981 -.01561515  00000+0 -67558-2 0  9998", "line2": "2 66823  69.9938 204.7867 0003928 271.3861 161.7087 15.87244205  2566"}}, "geometry": {"type": "Point", "coordinates": [58.40899377897189, -58.135813825489116]}}, {"type": "Feature", "properties": {"norad_id": 66824, "name": "STARLINK-35896", "group": "last-30-days", "lat": -59.57664503090675, "lon": 60.869666647589106, "alt_km": 321.72811191331675, "timestamp": "2025-12-11T10:53:14.621817+00:00", "meta": {"OBJECT_NAME": "STARLINK-35896", "OBJECT_ID": "2025-280D", "EPOCH": "2025-12-10T18:00:02.000160", "MEAN_MOTION": 15.87016307, "ECCENTRICITY": 0.0003777, "INCLINATION": 69.9936, "RA_OF_ASC_NODE": 204.544, "ARG_OF_PERICENTER": 269.0036, "MEAN_ANOMALY": 281.9492, "EPHEMERIS_TYPE": 0, "CLASSIFICATION_TYPE": "U", "NORAD_CAT_ID": 66824, "ELEMENT_SET_NO": 999, "REV_AT_EPOCH": 258, "BSTAR": -0.0070024, "MEAN_MOTION_DOT": -0.01595429, "MEAN_MOTION_DDOT": 0}, "tle": {"line1": "1 66824U 25280D   25344.75002315 -.01595429  00000+0 -70024-2 0  9995", "line2": "2 66824  69.9936 204.5440 0003777 269.0036 281.9492 15.87016307  2587"}}, "geometry": {"type": "Point", "coordinates": [60.869666647589106, -59.57664503090675]}}, {"type": "Feature", "properties": {"norad_id": 66825, "name": "STARLINK-35476", "group": "last-30-days", "lat": -61.03298209309802, "lon": 63.68189135536076, "alt_km": 321.69800754168136, "timestamp": "2025-12-11T10:53:14.621832+00:00", "meta": {"OBJECT_NAME": "STARLINK-35476", "OBJECT_ID": "2025-280E", "EPOCH": "2025-12-10T18:00:02.000160", "MEAN_MOTION": 15.87054454, "ECCENTRICITY": 0.0003729, "INCLINATION": 69.9936, "RA_OF_ASC_NODE": 204.5418, "ARG_OF_PERICENTER": 270.4103, "MEAN_ANOMALY": 282.4783, "EPHEMERIS_TYPE": 0, "CLASSIFICATION_TYPE": "U", "NORAD_CAT_ID": 66825, "ELEMENT_SET_NO": 999, "REV_AT_EPOCH": 243, "BSTAR": -0.0070194, "MEAN_MOTION_DOT": -0.0160143, "MEAN_MOTION_DDOT": 0}, "tle": {"line1": "1 66825U 25280E   25344.75002315 -.01601430  00000+0 -70194-2 0  9994", "line2": "2 66825  69.9936 204.5418 0003729 270.4103 282.4783 15.87054454  2439"}}, "geometry": {"type": "Point", "coordinates": [63.68189135536076, -61.03298209309802]}}]}